CTC2_L_00397016-03
1 10062U 26201KI  26075.70045139  .00000000  00000+0  00000-0 0  9998
2 10062  55.0000 180.0000 0000000   0.0000   0.0000 12.77881384    10
CTC2_L_00397016-04
1 10063U 26972EX  26075.70045139  .00000000  00000+0  00000-0 0  9994
2 10063  55.0000 180.0000 0000000   0.0000  90.0000 12.77881384    10
CTC2_L_00397017-01
1 10064U 22391NW  26075.70045139  .00000000  00000+0  00000-0 0  9996
2 10064  55.0000 192.0000 0000000   0.0000 192.0000 12.77881384    17
CTC2_L_00397017-02
1 10065U 23145MO  26075.70045139  .00000000  00000+0  00000-0 0  9995
2 10065  55.0000 192.0000 0000000   0.0000 282.0000 12.77881384    18
CTC2_L_00397017-03
1 10066U 23871AX  26075.70045139  .00000000  00000+0  00000-0 0  9992
2 10066  55.0000 192.0000 0000000   0.0000  12.0000 12.77881384    10
CTC2_L_00397017-04
1 10067U 26873VZ  26075.70045139  .00000000  00000+0  00000-0 0  9998
2 10067  55.0000 192.0000 0000000   0.0000 102.0000 12.77881384    11
CTC2_L_00397018-01
1 10068U 23890EQ  26075.70045139  .00000000  00000+0  00000-0 0  9995
2 10068  55.0000 204.0000 0000000   0.0000 204.0000 12.77881384    19
CTC2_L_00397018-02
1 10069U 22176DJ  26075.70045139  .00000000  00000+0  00000-0 0  9992
2 10069  55.0000 204.0000 0000000   0.0000 294.0000 12.77881384    19
CTC2_L_00397018-03
1 10070U 23881EP  26075.70045139  .00000000  00000+0  00000-0 0  9998
2 10070  55.0000 204.0000 0000000   0.0000  24.0000 12.77881384    12
CTC2_L_00397018-04
1 10071U 24953VU  26075.70045139  .00000000  00000+0  00000-0 0  9990
2 10071  55.0000 204.0000 0000000   0.0000 114.0000 12.77881384    13
CTC2_L_00397019-01
1 10072U 24044ML  26075.70045139  .00000000  00000+0  00000-0 0  9992
2 10072  55.0000 216.0000 0000000   0.0000 216.0000 12.77881384    10
CTC2_L_00397019-02
1 10073U 24614CS  26075.70045139  .00000000  00000+0  00000-0 0  9996
2 10073  55.0000 216.0000 0000000   0.0000 306.0000 12.77881384    11
CTC2_L_00397019-03
1 10074U 22802ZL  26075.70045139  .00000000  00000+0  00000-0 0  9994
2 10074  55.0000 216.0000 0000000   0.0000  36.0000 12.77881384    12
CTC2_L_00397019-04
1 10075U 26180OQ  26075.70045139  .00000000  00000+0  00000-0 0  9998
2 10075  55.0000 216.0000 0000000   0.0000 126.0000 12.77881384    13
CTC2_L_00397020-01
1 10076U 22160UP  26075.70045139  .00000000  00000+0  00000-0 0  9993
2 10076  55.0000 228.0000 0000000   0.0000 228.0000 12.77881384    10
CTC2_L_00397020-02
1 10077U 22550TC  26075.70045139  .00000000  00000+0  00000-0 0  9997
2 10077  55.0000 228.0000 0000000   0.0000 318.0000 12.77881384    11
CTC2_L_00397020-03
1 10078U 22776BD  26075.70045139  .00000000  00000+0  00000-0 0  9998
2 10078  55.0000 228.0000 0000000   0.0000  48.0000 12.77881384    12
CTC2_L_00397020-04
1 10079U 26568TB  26075.70045139  .00000000  00000+0  00000-0 0  9992
2 10079  55.0000 228.0000 0000000   0.0000 138.0000 12.77881384    13
CTC2_L_00397021-01
1 10080U 24052NJ  26075.70045139  .00000000  00000+0  00000-0 0  9990
2 10080  55.0000 240.0000 0000000   0.0000 240.0000 12.77881384    13
CTC2_L_00397021-02
1 10081U 26544ZF  26075.70045139  .00000000  00000+0  00000-0 0  9999
2 10081  55.0000 240.0000 0000000   0.0000 330.0000 12.77881384    14
CTC2_L_00397021-03
1 10082U 23293ZA  26075.70045139  .00000000  00000+0  00000-0 0  9998
2 10082  55.0000 240.0000 0000000   0.0000  60.0000 12.77881384    15
CTC2_L_00397021-04
1 10083U 23338GP  26075.70045139  .00000000  00000+0  00000-0 0  9999
2 10083  55.0000 240.0000 0000000   0.0000 150.0000 12.77881384    16
CTC2_L_00397022-01
1 10084U 24082PM  26075.70045139  .00000000  00000+0  00000-0 0  9997
2 10084  55.0000 252.0000 0000000   0.0000 252.0000 12.77881384    13
CTC2_L_00397022-02
1 10085U 25177ZR  26075.70045139  .00000000  00000+0  00000-0 0  9994
2 10085  55.0000 252.0000 0000000   0.0000 342.0000 12.77881384    14
CTC2_L_00397022-03
1 10086U 25080FL  26075.70045139  .00000000  00000+0  00000-0 0  9998
2 10086  55.0000 252.0000 0000000   0.0000  72.0000 12.77881384    15
CTC2_L_00397022-04
1 10087U 25911RD  26075.70045139  .00000000  00000+0  00000-0 0  9992
2 10087  55.0000 252.0000 0000000   0.0000 162.0000 12.77881384    16
CTC2_L_00397023-01
1 10088U 24627CO  26075.70045139  .00000000  00000+0  00000-0 0  9996
2 10088  55.0000 264.0000 0000000   0.0000 264.0000 12.77881384    13
CTC2_L_00397023-02
1 10089U 24243NB  26075.70045139  .00000000  00000+0  00000-0 0  9991
2 10089  55.0000 264.0000 0000000   0.0000 354.0000 12.77881384    14
CTC2_L_00397023-03
1 10090U 22842PZ  26075.70045139  .00000000  00000+0  00000-0 0  9996
2 10090  55.0000 264.0000 0000000   0.0000  84.0000 12.77881384    16
CTC2_L_00397023-04
1 10091U 24185TE  26075.70045139  .00000000  00000+0  00000-0 0  9999
2 10091  55.0000 264.0000 0000000   0.0000 174.0000 12.77881384    17
CTC2_L_00397024-01
1 10092U 24627XA  26075.70045139  .00000000  00000+0  00000-0 0  9991
2 10092  55.0000 276.0000 0000000   0.0000 276.0000 12.77881384    14
CTC2_L_00397024-02
1 10093U 22704RC  26075.70045139  .00000000  00000+0  00000-0 0  9996
2 10093  55.0000 276.0000 0000000   0.0000   6.0000 12.77881384    16
CTC2_L_00397024-03
1 10094U 24982GH  26075.70045139  .00000000  00000+0  00000-0 0  9997
2 10094  55.0000 276.0000 0000000   0.0000  96.0000 12.77881384    16
CTC2_L_00397024-04
1 10095U 25188KE  26075.70045139  .00000000  00000+0  00000-0 0  9997
2 10095  55.0000 276.0000 0000000   0.0000 186.0000 12.77881384    17
CTC2_L_00397025-01
1 10096U 25916KV  26075.70045139  .00000000  00000+0  00000-0 0  9997
2 10096  55.0000 288.0000 0000000   0.0000 288.0000 12.77881384    14
CTC2_L_00397025-02
1 10097U 26462AW  26075.70045139  .00000000  00000+0  00000-0 0  9995
2 10097  55.0000 288.0000 0000000   0.0000  18.0000 12.77881384    16
CTC2_L_00397025-03
1 10098U 24903BX  26075.70045139  .00000000  00000+0  00000-0 0  9994
2 10098  55.0000 288.0000 0000000   0.0000 108.0000 12.77881384    17
CTC2_L_00397025-04
1 10099U 25186DV  26075.70045139  .00000000  00000+0  00000-0 0  9999
2 10099  55.0000 288.0000 0000000   0.0000 198.0000 12.77881384    17
CTC2_L_00397026-01
1 10100U 23470WS  26075.70045139  .00000000  00000+0  00000-0 0  9996
2 10100  55.0000 300.0000 0000000   0.0000 300.0000 12.77881384    10
CTC2_L_00397026-02
1 10101U 23208YL  26075.70045139  .00000000  00000+0  00000-0 0  9996
2 10101  55.0000 300.0000 0000000   0.0000  30.0000 12.77881384    11
CTC2_L_00397026-03
1 10102U 23159PW  26075.70045139  .00000000  00000+0  00000-0 0  9992
2 10102  55.0000 300.0000 0000000   0.0000 120.0000 12.77881384    12
CTC2_L_00397026-04
1 10103U 25728DD  26075.70045139  .00000000  00000+0  00000-0 0  9997
2 10103  55.0000 300.0000 0000000   0.0000 210.0000 12.77881384    13
CTC2_L_00397027-01
1 10104U 24780QY  26075.70045139  .00000000  00000+0  00000-0 0  9995
2 10104  55.0000 312.0000 0000000   0.0000 312.0000 12.77881384    10
CTC2_L_00397027-02
1 10105U 24335XT  26075.70045139  .00000000  00000+0  00000-0 0  9992
2 10105  55.0000 312.0000 0000000   0.0000  42.0000 12.77881384    11
CTC2_L_00397027-03
1 10106U 22614FK  26075.70045139  .00000000  00000+0  00000-0 0  9991
2 10106  55.0000 312.0000 0000000   0.0000 132.0000 12.77881384    12
CTC2_L_00397027-04
1 10107U 26025TK  26075.70045139  .00000000  00000+0  00000-0 0  9992
2 10107  55.0000 312.0000 0000000   0.0000 222.0000 12.77881384    13
CTC2_L_00397028-01
1 10108U 22566OQ  26075.70045139  .00000000  00000+0  00000-0 0  9999
2 10108  55.0000 324.0000 0000000   0.0000 324.0000 12.77881384    10
CTC2_L_00397028-02
1 10109U 23371PO  26075.70045139  .00000000  00000+0  00000-0 0  9995
2 10109  55.0000 324.0000 0000000   0.0000  54.0000 12.77881384    11
CTC2_L_00397028-03
1 10110U 24216IO  26075.70045139  .00000000  00000+0  00000-0 0  9996
2 10110  55.0000 324.0000 0000000   0.0000 144.0000 12.77881384    13
CTC2_L_00397028-04
1 10111U 25579VJ  26075.70045139  .00000000  00000+0  00000-0 0  9990
2 10111  55.0000 324.0000 0000000   0.0000 234.0000 12.77881384    14
CTC2_L_00397029-01
1 10112U 23326BJ  26075.70045139  .00000000  00000+0  00000-0 0  9999
2 10112  55.0000 336.0000 0000000   0.0000 336.0000 12.77881384    11
CTC2_L_00397029-02
1 10113U 25579TC  26075.70045139  .00000000  00000+0  00000-0 0  9992
2 10113  55.0000 336.0000 0000000   0.0000  66.0000 12.77881384    12
CTC2_L_00397029-03
1 10114U 23596KL  26075.70045139  .00000000  00000+0  00000-0 0  9990
2 10114  55.0000 336.0000 0000000   0.0000 156.0000 12.77881384    13
CTC2_L_00397029-04
1 10115U 24419EL  26075.70045139  .00000000  00000+0  00000-0 0  9996
2 10115  55.0000 336.0000 0000000   0.0000 246.0000 12.77881384    14
CTC2_L_00397030-01
1 10116U 25662NA  26075.70045139  .00000000  00000+0  00000-0 0  9998
2 10116  55.0000 348.0000 0000000   0.0000 348.0000 12.77881384    11
CTC2_L_00397030-02
1 10117U 26419JF  26075.70045139  .00000000  00000+0  00000-0 0  9990
2 10117  55.0000 348.0000 0000000   0.0000  78.0000 12.77881384    12
CTC2_L_00397030-03
1 10118U 25671ZN  26075.70045139  .00000000  00000+0  00000-0 0  9990
2 10118  55.0000 348.0000 0000000   0.0000 168.0000 12.77881384    13
CTC2_L_00397030-04
1 10119U 24197CY  26075.70045139  .00000000  00000+0  00000-0 0  9993
2 10119  55.0000 348.0000 0000000   0.0000 258.0000 12.77881384    14
